*******************************************************************************
Ephemeris / WWW_USER Sun Apr 28 18:32:27 2019 Pasadena, USA      / Horizons    
*******************************************************************************
Target body name: Jupiter (599)                   {source: jup341}
Center body name: Earth (399)                     {source: DE431mx}
Center-site name: GEOCENTRIC
*******************************************************************************
Start time      : A.D. 2010-Jan-01 00:00:00.0000 UT      
Stop  time      : A.D. 2030-Jan-01 00:00:00.0000 UT      
Step-size       : 2880 minutes
*******************************************************************************
Target pole/equ : IAU_JUPITER                     {West-longitude positive}
Target radii    : 71492.0 x 71492.0 x 66854.0 km  {Equator, meridian, pole}    
Center geodetic : 0.00000000,0.00000000,0.0000000 {E-lon(deg),Lat(deg),Alt(km)}
Center cylindric: 0.00000000,0.00000000,0.0000000 {E-lon(deg),Dxy(km),Dz(km)}
Center pole/equ : High-precision EOP model        {East-longitude positive}
Center radii    : 6378.1 x 6378.1 x 6356.8 km     {Equator, meridian, pole}    
Target primary  : Sun
Vis. interferer : MOON (R_eq= 1737.400) km        {source: DE431mx}
Rel. light bend : Sun, EARTH                      {source: DE431mx}
Rel. lght bnd GM: 1.3271E+11, 3.9860E+05 km^3/s^2                              
Atmos refraction: YES (Earth refraction model)
RA format       : DEG
Time format     : CAL 
EOP file        : eop.190426.p190718                                           
EOP coverage    : DATA-BASED 1962-JAN-20 TO 2019-APR-26. PREDICTS-> 2019-JUL-17
Units conversion: 1 au= 149597870.700 km, c= 299792.458 km/s, 1 day= 86400.0 s 
Table cut-offs 1: Elevation (-90.0deg=NO ),Airmass (>38.000=NO), Daylight (NO )
Table cut-offs 2: Solar elongation (  0.0,180.0=NO ),Local Hour Angle( 0.0=NO )
Table cut-offs 3: RA/DEC angular rate (     0.0=NO )                           
******************************************************************************************************
 Date__(UT)__HR:MN      APmag  S-brt               r        rdot            delta      deldot    S-T-O
******************************************************************************************************
$$SOE
 2017-Sep-13 00:00      -1.71   5.52  5.446057880807  -0.1733401 6.25221831297898  14.6709943   5.9173
 2017-Sep-15 00:00      -1.71   5.52  5.445855956877  -0.1759083 6.26880651610277  14.0487505   5.6734
 2017-Sep-17 00:00      -1.70   5.52  5.445653596669  -0.1762001 6.28467084225798  13.4155799   5.4258
 2017-Sep-19 00:00      -1.70   5.52  5.445449885476  -0.1776739 6.29979547610713  12.7688954   5.1748
 2017-Sep-21 00:00      -1.69   5.51  5.445243425170  -0.1806054 6.31416549365593  12.1097376   4.9204
 2017-Sep-23 00:00      -1.69   5.51  5.445034015890  -0.1807861 6.32776905623472  11.4439440   4.6629
 2017-Sep-25 00:00      -1.69   5.51  5.444823903138  -0.1820805 6.34059816727178  10.7687792   4.4026
 2017-Sep-27 00:00      -1.68   5.51  5.444611827907  -0.1843294 6.35264290555948  10.0857515   4.1395
 2017-Sep-29 00:00      -1.68   5.51  5.444396503683  -0.1875278 6.36389456688478   9.3959295   3.8739
 2017-Oct-01 00:00      -1.68   5.51  5.444180354249  -0.1877619 6.37434912495463   8.7036625   3.6059
 2017-Oct-03 00:00      -1.68   5.51  5.443963370539  -0.1891442 6.38400066448362   8.0055641   3.3359
 2017-Oct-05 00:00      -1.68   5.51  5.443744269013  -0.1918097 6.39284274793019   7.3018534   3.0638
 2017-Oct-07 00:00      -1.68   5.50  5.443522050780  -0.1923299 6.40086943319594   6.5958242   2.7899
 2017-Oct-09 00:00      -1.67   5.50  5.443299169482  -0.1931652 6.40807739802004   5.8839001   2.5144
 2017-Oct-11 00:00      -1.67   5.50  5.443074328693  -0.1950672 6.41445839658176   5.1644097   2.2375
 2017-Oct-13 00:00      -1.67   5.50  5.442846058978  -0.1987999 6.42000303932052   4.4360498   1.9593
 2017-Oct-15 00:00      -1.67   5.50  5.442616186741  -0.1992826 6.42470499993437   3.7039374   1.6802
 2017-Oct-17 00:00      -1.67   5.50  5.442385635652  -0.2007844 6.42855749962040   2.9646756   1.4005
 2017-Oct-19 00:00      -1.67   5.50  5.442153433462  -0.2032014 6.43155323922826   2.2197126   1.1209
 2017-Oct-21 00:00      -1.67   5.49  5.441918157276  -0.2041253 6.43368617337006   1.4729978   0.8426
 2017-Oct-23 00:00      -1.68   5.49  5.441682431898  -0.2043338 6.43495595184541   0.7250649   0.5690
 2017-Oct-25 00:00      -1.68   5.49  5.441445098166  -0.2056649 6.43535992444176  -0.0246990   0.3140
 2017-Oct-27 00:00      -1.68   5.49  5.441204472569  -0.2095606 6.43489614878335  -0.7767947   0.1879
 2017-Oct-29 00:00      -1.68   5.49  5.440961387778  -0.2104290 6.43356617332945  -1.5248665   0.3662
 2017-Oct-31 00:00      -1.68   5.49  5.440717457028  -0.2122204 6.43137317547729  -2.2721722   0.6283
 2017-Nov-02 00:00      -1.68   5.49  5.440471979458  -0.2146021 6.42831869481458  -3.0179519   0.9037
 2017-Nov-04 00:00      -1.68   5.50  5.440223358205  -0.2162215 6.42440353174702  -3.7610839   1.1829
 2017-Nov-06 00:00      -1.68   5.50  5.439974341084  -0.2159264 6.41963219661765  -4.5012207   1.4632
 2017-Nov-08 00:00      -1.68   5.50  5.439724292096  -0.2165416 6.41400460603620  -5.2423578   1.7436
 2017-Nov-10 00:00      -1.68   5.50  5.439471549695  -0.2200454 6.40751858533385  -5.9870391   2.0237
 2017-Nov-12 00:00      -1.68   5.50  5.439215806617  -0.2211433 6.40017314614765  -6.7295814   2.3030
 2017-Nov-14 00:00      -1.68   5.50  5.438959022965  -0.2231245 6.39197067305358  -7.4720086   2.5813
 2017-Nov-16 00:00      -1.68   5.50  5.438700567870  -0.2256035 6.38291248808407  -8.2125154   2.8583
 2017-Nov-18 00:00      -1.69   5.50  5.438438714067  -0.2282420 6.37300046324797  -8.9494692   3.1337
 2017-Nov-20 00:00      -1.69   5.50  5.438176073036  -0.2279067 6.36224241794113  -9.6780915   3.4073
 2017-Nov-22 00:00      -1.69   5.51  5.437912814694  -0.2280214 6.35064545219811 -10.4006021   3.6788
 2017-Nov-24 00:00      -1.69   5.51  5.437647664580  -0.2307496 6.33821647676938 -11.1181554   3.9482
 2017-Nov-26 00:00      -1.70   5.51  5.437379415794  -0.2317766 6.32496330391352 -11.8258005   4.2150
 2017-Nov-28 00:00      -1.70   5.51  5.437110195546  -0.2335359 6.31089817967111 -12.5249882   4.4792
 2017-Nov-30 00:00      -1.70   5.51  5.436839290588  -0.2359524 6.29603123120505 -13.2152693   4.7406
 2017-Dec-02 00:00      -1.71   5.51  5.436564771272  -0.2396639 6.28037154802511 -13.8976491   4.9990
 2017-Dec-04 00:00      -1.71   5.51  5.436288669544  -0.2398161 6.26393144177773 -14.5678336   5.2541
 2017-Dec-06 00:00      -1.72   5.51  5.436011955570  -0.2399471 6.24672127908422 -15.2304972   5.5059
 2017-Dec-08 00:00      -1.72   5.51  5.435733932238  -0.2419558 6.22874864183199 -15.8879935   5.7541
 2017-Dec-10 00:00      -1.73   5.51  5.435452891566  -0.2428341 6.21001989602494 -16.5370409   5.9986
 2017-Dec-12 00:00      -1.73   5.52  5.435171167182  -0.2439130 6.19054689650224 -17.1770794   6.2391
 2017-Dec-14 00:00      -1.74   5.52  5.434888093306  -0.2458342 6.17034039952727 -17.8073183   6.4754
 2017-Dec-16 00:00      -1.75   5.52  5.434601569667  -0.2502348 6.14941144437111 -18.4282332   6.7072
 2017-Dec-18 00:00      -1.75   5.52  5.434312598884  -0.2511470 6.12777542580849 -19.0323248   6.9344
 2017-Dec-20 00:00      -1.76   5.52  5.434022694044  -0.2517864 6.10545027949139 -19.6213619   7.1567
 2017-Dec-22 00:00      -1.77   5.52  5.433731646139  -0.2534513 6.08245356280528 -20.1954288   7.3738
 2017-Dec-24 00:00      -1.77   5.52  5.433437512629  -0.2544948 6.05880194323090 -20.7525526   7.5855
 2017-Dec-26 00:00      -1.78   5.52  5.433142832055  -0.2547874 6.03451753769356 -21.2912668   7.7917
 2017-Dec-28 00:00      -1.79   5.52  5.432847334204  -0.2558322 6.00962059410076 -21.8128304   7.9921
 2017-Dec-30 00:00      -1.80   5.52  5.432549057124  -0.2602134 5.98412984728176 -22.3202069   8.1864
 2018-Jan-01 00:00      -1.81   5.52  5.432247797492  -0.2617433 5.95806470082272 -22.8081127   8.3746
 2018-Jan-03 00:00      -1.82   5.52  5.431945288478  -0.2630454 5.93144585117468 -23.2799708   8.5563
 2018-Jan-05 00:00      -1.83   5.52  5.431641537193  -0.2647185 5.90429121571119 -23.7367569   8.7315
 2018-Jan-07 00:00      -1.84   5.52  5.431334433837  -0.2664080 5.87661647169656 -24.1780397   8.8998
 2018-Jan-09 00:00      -1.85   5.52  5.431026481606  -0.2662511 5.84844318653516 -24.5996312   9.0610
 2018-Jan-11 00:00      -1.86   5.52  5.430718053073  -0.2664366 5.81979324250790 -25.0021124   9.2149
 2018-Jan-13 00:00      -1.87   5.53  5.430407738360  -0.2701705 5.79068864203953 -25.3873318   9.3612
 2018-Jan-15 00:00      -1.88   5.53  5.430094345925  -0.2719190 5.76115254369072 -25.7488918   9.4997
 2018-Jan-17 00:00      -1.89   5.53  5.429779695557  -0.2736096 5.73121305764096 -26.0869951   9.6300
 2018-Jan-19 00:00      -1.90   5.53  5.429463783066  -0.2753479 5.70089787746122 -26.4005572   9.7520
 2018-Jan-21 00:00      -1.91   5.53  5.429144297940  -0.2779867 5.67023335760505 -26.6902736   9.8654
 2018-Jan-23 00:00      -1.92   5.53  5.428823265034  -0.2779087 5.63925060886304 -26.9512898   9.9700
 2018-Jan-25 00:00      -1.93   5.53  5.428501676158  -0.2776454 5.60798081905817 -27.1858813  10.0655
 2018-Jan-27 00:00      -1.94   5.53  5.428178884114  -0.2805110 5.57645364523028 -27.3975675  10.1517
 2018-Jan-29 00:00      -1.96   5.53  5.427853083351  -0.2822167 5.54469630071368 -27.5836319  10.2285
 2018-Jan-31 00:00      -1.97   5.53  5.427526265163  -0.2838412 5.51273897397085 -27.7455877  10.2957
 2018-Feb-02 00:00      -1.98   5.53  5.427198467430  -0.2853773 5.48060905129865 -27.8839125  10.3530
 2018-Feb-04 00:00      -1.99   5.53  5.426867266954  -0.2888579 5.44833146804157 -28.0006007  10.4002
 2018-Feb-06 00:00      -2.01   5.53  5.426533753019  -0.2892485 5.41593537450068 -28.0886260  10.4372
